COMMENT,ORIGINATOR,NORAD_CAT_ID,OBJECT_NAME,OBJECT_TYPE,CLASSIFICATION_TYPE,INTLDES,EPOCH,EPOCH_MICROSECONDS,MEAN_MOTION,ECCENTRICITY,INCLINATION,RA_OF_ASC_NODE,ARG_OF_PERICENTER,MEAN_ANOMALY,EPHEMERIS_TYPE,ELEMENT_SET_NO,REV_AT_EPOCH,BSTAR,MEAN_MOTION_DOT,MEAN_MOTION_DDOT,FILE,TLE_LINE0,TLE_LINE1,TLE_LINE2,OBJECT_ID,OBJECT_NUMBER,SEMIMAJOR_AXIS,PERIOD,APOGEE,PERIGEE
"GENERATED VIA SPACETRACK.ORG API","JSPOC","27715","GALAXY 12","PAYLOAD","U","03013B","2016-01-10 14:05:31","985664","1.00270736","0.0001613","0.0084","258.4832","5.5668","287.8635","0","999","1393","0","6.2e-07","0","1979034","0 GALAXY 12","1 27715U 03013B   16010.58717576 +.00000062 +00000-0 +00000-0 0  9991","2 27715 000.0084 258.4832 0001613 005.5668 287.8635 01.00270736013930","2003-013B","27715","42165.026","1436.111","35793.692","35780.089"
"GENERATED VIA SPACETRACK.ORG API","JSPOC","33453","CIEL-2","PAYLOAD","U","08063A","2016-01-10 14:05:31","985664","1.00271548","0.0002611","0.0329","305.5676","340.7393","265.7592","0","999","2596","0","6.1e-07","0","1979034","0 CIEL-2","1 33453U 08063A   16010.58717576 +.00000061 +00000-0 +00000-0 0  9996","2 33453 000.0329 305.5676 0002611 340.7393 265.7592 01.00271548025961","2008-063A","33453","42164.798","1436.100","35797.672","35775.654"
"GENERATED VIA SPACETRACK.ORG API","JSPOC","16012","SL-8 R/B","ROCKET BODY","U","85079B","2016-01-10 14:06:51","260256","14.36163522","0.0013838","74.0594","15.0813","46.5575","313.6726","0","999","58842","-2.313e-06","-3.3e-07","0","1979034","0 SL-8 R/B","1 16012U 85079B   16010.58809329 -.00000033 +00000-0 -23130-5 0  9993","2 16012 074.0594 015.0813 0013838 046.5575 313.6726 14.36163522588422","1985-079B","16012","7149.339","100.267","781.097","761.311"
"GENERATED VIA SPACETRACK.ORG API","JSPOC","12641","COSMOS 1292","PAYLOAD","U","81074F","2016-01-10 14:07:02","194176","12.48688284","0.0007334","74.033","37.1657","101.6875","68.2476","0","999","56942","8.3272e-05","-3e-08","0","1979034","0 COSMOS 1292","1 12641U 81074F   16010.58821984 -.00000003 +00000-0 +83272-4 0  9997","2 12641 074.0330 037.1657 0007334 101.6875 068.2476 12.48688284569427","1981-074F","12641","7848.123","115.321","1475.744","1464.232"
"GENERATED VIA SPACETRACK.ORG API","JSPOC","829","ELEKTRON 3","PAYLOAD","U","64038A","2016-01-10 14:07:23","933280","9.1293573","0.2992261","60.8049","25.3677","59.0043","327.0812","0","999","66656","0.00018289","6.83e-06","0","1979034","0 ELEKTRON 3","1   829U 64038A   16010.58847145 +.00000683 +00000-0 +18289-3 0  9998","2   829 060.8049 025.3677 2992261 059.0043 327.0812 09.12935730666561","1964-038A","829","9670.339","157.732","6185.822","398.586"
"GENERATED VIA SPACETRACK.ORG API","JSPOC","10820","OPS 6182 (DMSP 5D-1 F3)","PAYLOAD","U","78042A","2016-01-10 14:07:23","848608","14.34933488","0.000998","98.5566","197.2017","149.865","210.3111","0","999","96620","7.7242e-05","1.76e-06","0","1979034","0 OPS 6182 (DMSP 5D-1 F3)","1 10820U 78042A   16010.58847047 +.00000176 +00000-0 +77242-4 0  9993","2 10820 098.5566 197.2017 0009980 149.8650 210.3111 14.34933488966207","1978-042A","10820","7153.424","100.353","782.428","768.150"
"GENERATED VIA SPACETRACK.ORG API","JSPOC","21894","INSAT 2R (ARABSAT 1C)","PAYLOAD","U","92010B","2016-01-10 14:07:35","334624","0.98682233","0.0031928","10.9698","41.4262","189.7871","171.1704","0","999","8662","0","1.7e-07","0","1978612","0 INSAT 2R (ARABSAT 1C)","1 21894U 92010B   16010.58860341  .00000017  00000-0  00000+0 0  9996","2 21894  10.9698  41.4262 0031928 189.7871 171.1704  0.98682233 86626","1992-010B","21894","42616.311","1459.229","36374.242","36102.111"
"GENERATED VIA SPACETRACK.ORG API","JSPOC","21894","INSAT 2R (ARABSAT 1C)","PAYLOAD","U","92010B","2016-01-10 14:07:35","334624","0.98682233","0.0031928","10.9698","41.4262","189.7871","171.1704","0","999","8662","0","1.7e-07","0","1979020","0 INSAT 2R (ARABSAT 1C)","1 21894U 92010B   16010.58860341  .00000017  00000-0  00000+0 0  9996","2 21894  10.9698  41.4262 0031928 189.7871 171.1704  0.98682233 86626","1992-010B","21894","42616.311","1459.229","36374.242","36102.111"
"GENERATED VIA SPACETRACK.ORG API","JSPOC","39424","CINEMA 2","PAYLOAD","U","13066J","2016-01-10 14:07:42","343392","14.71767385","0.0093028","97.6929","59.9351","206.5415","153.1014","0","999","11446","9.0389e-05","5.52e-06","0","1979034","0 CINEMA 2","1 39424U 13066J   16010.58868453 +.00000552 +00000-0 +90389-4 0  9998","2 39424 097.6929 059.9351 0093028 206.5415 153.1014 14.71767385114463","2013-066J","39424","7033.568","97.841","720.865","590.001"
"GENERATED VIA SPACETRACK.ORG API","JSPOC","24894","COSMOS 2345","PAYLOAD","U","97041A","2016-01-10 14:07:51","115584","1.00155085","0.016811","13.1207","30.8895","201.3728","186.2673","0","999","6746","0","-3.17e-06","0","1979034","0 COSMOS 2345","1 24894U 97041A   16010.58878606 -.00000317 +00000-0 +00000-0 0  9996","2 24894 013.1207 030.8895 0168110 201.3728 186.2673 01.00155085067467","1997-041A","24894","42197.478","1437.770","36528.725","35109.962"
"GENERATED VIA SPACETRACK.ORG API","JSPOC","23764","INTELSAT 3R (PAS 3R)","PAYLOAD","U","96002A","2016-01-10 14:08:41","410752","0.99085322","0.0016913","5.1407","60.0885","187.6269","174.7865","0","999","7303","0","-9.4e-07","0","1979034","0 INTELSAT 3R (PAS 3R)","1 23764U 96002A   16010.58936818 -.00000094 +00000-0 +00000-0 0  9999","2 23764 005.1407 060.0885 0016913 187.6269 174.7865 00.99085322073036","1996-002A","23764","42500.655","1453.292","36194.401","36050.638"
"GENERATED VIA SPACETRACK.ORG API","JSPOC","25315","COSMOS 2350","PAYLOAD","U","98025A","2016-01-10 14:08:45","34368","1.00286373","0.0003713","11.8346","34.7908","96.0972","265.292","0","999","6484","0","-9.9e-07","0","1978623","0 COSMOS 2350","1 25315U 98025A   16010.58941012 -.00000099  00000-0  00000+0 0  9996","2 25315  11.8346  34.7908 0003713  96.0972 265.2920  1.00286373 64847","1998-025A","25315","42160.642","1435.888","35798.162","35766.853"
"GENERATED VIA SPACETRACK.ORG API","JSPOC","2920","OPS 7202 (DMSP 4A F3)","PAYLOAD","U","67080A","2016-01-10 14:09:07","594272","14.14623997","0.0038891","99.0508","203.8238","41.1015","319.3076","0","999","49430","2.9821e-05","1.2e-07","0","1978655","0 OPS 7202 (DMSP 4A F3)","1 02920U 67080A   16010.58967123  .00000012  00000-0  29821-4 0  9992","2 02920  99.0508 203.8238 0038891  41.1015 319.3076 14.14623997494308","1967-080A","2920","7221.728","101.793","871.679","815.507"
"GENERATED VIA SPACETRACK.ORG API","JSPOC","7715","SL-3 R/B","ROCKET BODY","U","75023B","2016-01-10 14:09:23","791680","14.06702446","0.0051491","81.2204","18.4323","162.9383","197.3533","0","999","9206","-3.5076e-06","7e-08","0","1978668","0 SL-3 R/B","1 07715U 75023B   16010.58985870  .00000007  00000-0 -35076-5 0  9999","2 07715  81.2204  18.4323 0051491 162.9383 197.3533 14.06702446 92064","1975-023B","7715","7248.814","102.367","908.004","833.355"
"GENERATED VIA SPACETRACK.ORG API","JSPOC","13757","COSMOS 1428","PAYLOAD","U","83001A","2016-01-10 14:09:53","482176","13.76798561","0.0036142","82.9114","5.8311","99.3697","29.1483","0","999","65732","1.1003e-05","2.6e-07","0","1979034","0 COSMOS 1428","1 13757U 83001A   16010.59020234 +.00000026 +00000-0 +11003-4 0  9995","2 13757 082.9114 005.8311 0036142 099.3697 029.1483 13.76798561657320","1983-001A","13757","7353.400","104.590","1001.842","948.689"
"GENERATED VIA SPACETRACK.ORG API","JSPOC","40271","INTELSAT 30","PAYLOAD","U","14062A","2016-01-10 14:10:34","603392","1.00276079","0.000152","0.0165","74.9442","105.9962","46.2023","0","999","455","0","-1.48e-06","0","1978689","0 INTELSAT 30","1 40271U 14062A   16010.59067828 -.00000148  00000-0  00000+0 0  9993","2 40271   0.0165  74.9442 0001520 105.9962  46.2023  1.00276079  4551","2014-062A","40271","42163.528","1436.035","35791.802","35778.984"
"GENERATED VIA SPACETRACK.ORG API","JSPOC","32018","SPACEWAY 3","PAYLOAD","U","07036A","2016-01-10 14:10:34","603392","1.00274179","1.46e-05","0.0166","216.4557","150.6385","220.1431","0","999","3091","0","-1.49e-06","0","1978704","0 SPACEWAY 3","1 32018U 07036A   16010.59067828 -.00000149  00000-0  00000+0 0  9997","2 32018   0.0166 216.4557 0000146 150.6385 220.1431  1.00274179 30915","2007-036A","32018","42164.060","1436.062","35786.541","35785.310"
"GENERATED VIA SPACETRACK.ORG API","JSPOC","32387","RASCOM 1","PAYLOAD","U","07063A","2016-01-10 14:10:34","603392","0.99063618","0.0005115","4.2062","65.4448","338.1657","183.5283","0","999","2972","0","-5e-08","0","1979034","0 RASCOM 1","1 32387U 07063A   16010.59067828 -.00000005 +00000-0 +00000-0 0  9998","2 32387 004.2062 065.4448 0005115 338.1657 183.5283 00.99063618029727","2007-063A","32387","42506.862","1453.611","36150.469","36106.985"
"GENERATED VIA SPACETRACK.ORG API","JSPOC","28522","SL-8 R/B","ROCKET BODY","U","05002B","2016-01-10 14:10:58","910304","13.89468129","0.0044822","82.9453","33.8045","330.3712","153.4756","0","999","55634","9.5665e-05","1.33e-06","0","1979034","0 SL-8 R/B","1 28522U 05002B   16010.59095961 +.00000133 +00000-0 +95665-4 0  9990","2 28522 082.9453 033.8045 0044822 330.3712 153.4756 13.89468129556349","2005-002B","28522","7308.632","103.636","963.256","897.738"
"GENERATED VIA SPACETRACK.ORG API","JSPOC","877","SL-3 R/B","ROCKET BODY","U","64053B","2016-01-10 14:11:41","36352","14.59201746","0.0079451","65.0783","22.1643","307.4476","51.9412","0","999","72511","3.5404e-05","5.1e-07","0","1978652","0 SL-3 R/B","1 00877U 64053B   16010.59144718  .00000051  00000-0  35404-4 0  9993","2 00877  65.0783  22.1643 0079451 307.4476  51.9412 14.59201746725115","1964-053B","877","7073.889","98.684","751.957","639.551"
